[
  {
    "disease": "肺癌",
    "name": "杨农",
    "pinyin": "yangnong",
    "province": "",
    "city": "",
    "hospital": "湖南省肿瘤医院肺胃肠肿瘤内科",
    "department": "肺胃肠肿瘤内科",
    "title": "主任医师",
    "skill": "擅长：肺癌/胃肠肿瘤精准靶向治疗、免疫治疗、疑难复发耐药，肺结节和肺癌早期诊断。最新免疫...",
    "bio_url": "https://www.haodf.com/doctor/DE4r0BCkuHzdeibYzchbpNCqpa7rv.htm"
  },
  {
    "disease": "肺癌",
    "name": "李玮",
    "pinyin": "liwei",
    "province": "",
    "city": "",
    "hospital": "上海市肺科医院肿瘤科",
    "department": "肿瘤科",
    "title": "主治医师",
    "skill": "擅长：肺癌",
    "bio_url": "https://www.haodf.com/doctor/DE4r0Fy0C9LuwRDQvC5dcSpWIyvz8Kq1V.htm"
  },
  {
    "disease": "肺癌",
    "name": "董晓荣",
    "pinyin": "dongxiaorong",
    "province": "",
    "city": "",
    "hospital": "武汉协和医院肿瘤中心",
    "department": "肿瘤中心",
    "title": "主任医师",
    "skill": "擅长：肺癌、食管癌、纵膈肿瘤的诊断、规范化和个体化治疗（放化疗、分子靶向治疗、免疫治疗...",
    "bio_url": "https://www.haodf.com/doctor/DE4r0BCkuHzdeiOEy4wOXKq2IWmiF.htm"
  },
  {
    "disease": "肺癌",
    "name": "张洁霞",
    "pinyin": "zhangjiexia",
    "province": "",
    "city": "",
    "hospital": "广医一院呼研院-呼吸内科",
    "department": "-呼吸内科",
    "title": "主任医师",
    "skill": "擅长：胸部肿瘤尤其是肺癌个体化综合治疗、肺部阴影、肺部占位、胸水、胸部疼痛，不明原因咯...",
    "bio_url": "https://www.haodf.com/doctor/DE4r0BCkuHzdeZOlwlzfz6DLFjxaq.htm"
  },
  {
    "disease": "肺癌",
    "name": "周谦君",
    "pinyin": "zhouqianjun",
    "province": "",
    "city": "",
    "hospital": "上海交通大学附属胸科医院肿瘤外科",
    "department": "肿瘤外科",
    "title": "副主任医师",
    "skill": "擅长：从事胸外科临床工作二十余年，对肺癌、纵隔肿瘤、食管癌等胸部恶性肿瘤的诊断和手术有...",
    "bio_url": "https://www.haodf.com/doctor/DE4r0BCkuHzdeKqIkFlx2XzuGO4ty.htm"
  },
  {
    "disease": "肺癌",
    "name": "梁乃新",
    "pinyin": "liangnaixin",
    "province": "",
    "city": "",
    "hospital": "北京协和医院胸外科",
    "department": "胸外科",
    "title": "副主任医师",
    "skill": "擅长：磨玻璃样早期肺癌的精准微创手术治疗\n多原发性肺癌的微创手术及精准医学综合治疗\n以精...",
    "bio_url": "https://www.haodf.com/doctor/DE4r0BCkuHzdeCUMGO2bpNCqpa7rv.htm"
  },
  {
    "disease": "肺癌",
    "name": "刘宝刚",
    "pinyin": "liubaogang",
    "province": "",
    "city": "",
    "hospital": "哈尔滨医科大学附属肿瘤医院呼吸内科",
    "department": "呼吸内科",
    "title": "主任医师",
    "skill": "擅长：肺癌、胸膜间皮瘤.恶性胸水.胸腺癌.乳腺癌、诊断和治疗，对肿瘤化疗、综合治疗、靶向治...",
    "bio_url": "https://www.haodf.com/doctor/DE4r08xQdKSLVx2YQvKSvlgzgq2c.htm"
  },
  {
    "disease": "肺癌",
    "name": "赵军",
    "pinyin": "zhaojun",
    "province": "",
    "city": "",
    "hospital": "北京肿瘤医院胸部肿瘤内科",
    "department": "胸部肿瘤内科",
    "title": "主任医师",
    "skill": "擅长：胸部多种实体肿瘤、肺癌，经支气管针吸活检纵隔淋巴结，气管镜检查、内科胸腔镜检查及...",
    "bio_url": "https://www.haodf.com/doctor/DE4rO-XCoLUnktvReRtJXK298J.htm"
  },
  {
    "disease": "肺癌",
    "name": "孙冰生",
    "pinyin": "sunbingsheng",
    "province": "",
    "city": "",
    "hospital": "天津市肿瘤医院肺部肿瘤科",
    "department": "肺部肿瘤科",
    "title": "主任医师",
    "skill": "擅长：肺部磨玻璃结节和纵隔肿瘤的微创手术，尤其擅长微创解剖性肺段切除治疗肺部磨玻璃结节...",
    "bio_url": "https://www.haodf.com/doctor/DE4r0BCkuHzdexONZ00QBvLvytk8z.htm"
  },
  {
    "disease": "肺癌",
    "name": "范江",
    "pinyin": "fanjiang",
    "province": "",
    "city": "",
    "hospital": "上海市肺科医院胸外科",
    "department": "胸外科",
    "title": "主任医师",
    "skill": "擅长：纵隔肿瘤/胸腺肿瘤；肺结节/肺癌；肺大泡/自发性气胸；肺气肿/泡性毁损肺",
    "bio_url": "https://www.haodf.com/doctor/DE4r0BCkuHzdex1nzdQVy3s6uiTQK.htm"
  },
  {
    "disease": "肺癌",
    "name": "熊安稳",
    "pinyin": "xionganwen",
    "province": "",
    "city": "",
    "hospital": "上海市肺科医院肿瘤科",
    "department": "肿瘤科",
    "title": "主治医师",
    "skill": "擅长：1.肺部小结节影诊断。\r\n2.晚期肺癌的综合治疗。",
    "bio_url": "https://www.haodf.com/doctor/DE4r0Fy0C9LuGXybUIL-nXWg66K2nYytQ.htm"
  },
  {
    "disease": "肺癌",
    "name": "郁佳",
    "pinyin": "yujia",
    "province": "",
    "city": "",
    "hospital": "上海市肺科医院肿瘤科",
    "department": "肿瘤科",
    "title": "主治医师",
    "skill": "擅长：肺癌的诊治：化疗、靶向、免疫治疗等\n肺部阴影的鉴别诊断、随访",
    "bio_url": "https://www.haodf.com/doctor/DE4r0Fy0C9Luhnz9uCnojBLPECdSRGpar.htm"
  },
  {
    "disease": "肺癌",
    "name": "李世康",
    "pinyin": "lishikang",
    "province": "",
    "city": "",
    "hospital": "广西医科大学第一附属医院心胸外科",
    "department": "心胸外科",
    "title": "主任医师",
    "skill": "擅长：对各种普胸（肺、食管、纵隔）外科疾病的诊断与治疗有丰富的临床经验和较深的造诣;精通...",
    "bio_url": "https://www.haodf.com/doctor/DE4r08xQdKSLuZnK29sHYQ8uQGIO.htm"
  },
  {
    "disease": "肺癌",
    "name": "王颖轶",
    "pinyin": "wangyingyi",
    "province": "",
    "city": "",
    "hospital": "北京协和医院肿瘤内科",
    "department": "肿瘤内科",
    "title": "副主任医师",
    "skill": "擅长：肺癌靶向及免疫为主的精准医疗，擅长移动医疗管理及随访患者。",
    "bio_url": "https://www.haodf.com/doctor/DE4r0BCkuHzdeGpMGEXkFGpEHP0h6.htm"
  },
  {
    "disease": "肺癌",
    "name": "张百华",
    "pinyin": "zhangbaihua",
    "province": "",
    "city": "",
    "hospital": "湖南省肿瘤医院胸外科",
    "department": "胸外科",
    "title": "副主任医师",
    "skill": "擅长：肺部疾病尤其是肺肿瘤的诊断和精准治疗\r\n肺肿瘤的靶向治疗免疫治疗\r\n食管肿瘤的外科手...",
    "bio_url": "https://www.haodf.com/doctor/DE4r0Fy0C9LugkvHtvQfwOrbvK9uwpomO.htm"
  },
  {
    "disease": "肺癌",
    "name": "张雷",
    "pinyin": "zhanglei",
    "province": "",
    "city": "",
    "hospital": "天津市肿瘤医院肺部肿瘤科",
    "department": "肺部肿瘤科",
    "title": "副主任医师",
    "skill": "擅长：肺磨玻璃样病变，肺占位，肺肿物，肺癌，胸腔积液，纵膈及胸壁肿瘤的诊断和微创外科手...",
    "bio_url": "https://www.haodf.com/doctor/DE4r0BCkuHzdeCpmJ1ej6dZX-ciU9.htm"
  },
  {
    "disease": "肺癌",
    "name": "范晓溪",
    "pinyin": "fanxiaoxi",
    "province": "",
    "city": "",
    "hospital": "中国医大一院胸外科",
    "department": "胸外科",
    "title": "副主任医师",
    "skill": "擅长：肺部小结节及肺部阴影（磨玻璃结节）的定性（早期肺癌的诊断），肺癌的微创手术治疗，...",
    "bio_url": "https://www.haodf.com/doctor/DE4r0Fy0C9LuwWCnLDlJXMQ4z9ZEju-cx.htm"
  },
  {
    "disease": "肺癌",
    "name": "朱陵君",
    "pinyin": "zhulingjun",
    "province": "",
    "city": "",
    "hospital": "江苏省人民医院肿瘤科",
    "department": "肿瘤科",
    "title": "主任医师",
    "skill": "擅长：1.专注大肠癌/肺癌/恶性黑色素瘤的精准靶向、免疫治疗、疑难复发耐药、早期筛查、国际...",
    "bio_url": "https://www.haodf.com/doctor/DE4r0BCkuHzdeGIyuS2bpNCqpa7rv.htm"
  },
  {
    "disease": "肺癌",
    "name": "邵康",
    "pinyin": "shaokang",
    "province": "",
    "city": "",
    "hospital": "医科院肿瘤医院胸外科",
    "department": "胸外科",
    "title": "副主任医师",
    "skill": "擅长：胸部肿瘤的外科治疗。尤其擅长胸腔镜手术及复杂肺癌、食管癌（近期不接诊）、纵隔肿瘤...",
    "bio_url": "https://www.haodf.com/doctor/DE4r0BCkuHzdeGURTRy8SzvH6fbnp.htm"
  },
  {
    "disease": "肺癌",
    "name": "张力",
    "pinyin": "zhangli",
    "province": "",
    "city": "",
    "hospital": "北京协和医院呼吸与危重症医学科",
    "department": "呼吸与危重症医学科",
    "title": "主任医师",
    "skill": "擅长：呼吸系统疾病，特别是肺癌。\n目前对少见病：肌纤维母细胞瘤的诊治",
    "bio_url": "https://www.haodf.com/doctor/DE4rO-XCoLUXjpq1ObWl99uMTa.htm"
  },
  {
    "disease": "肺癌",
    "name": "李俭杰",
    "pinyin": "lijianjie",
    "province": "",
    "city": "",
    "hospital": "北京肿瘤医院胸部肿瘤内科",
    "department": "胸部肿瘤内科",
    "title": "副主任医师",
    "skill": "擅长：基于精准医学指导下肺癌的免疫治疗，化疗，靶向治疗及个体化治疗，目前负责正在进行的...",
    "bio_url": "https://www.haodf.com/doctor/DE4r0BCkuHzduxnjvh4fz6DLFjxaq.htm"
  },
  {
    "disease": "肺癌",
    "name": "杨浩贤",
    "pinyin": "yanghaoxian",
    "province": "",
    "city": "",
    "hospital": "中山大学肿瘤医院胸外科",
    "department": "胸外科",
    "title": "主任医师",
    "skill": "擅长：肺癌、食管癌和纵隔肿瘤的微创外科治疗；肺部小结节和磨玻璃结节的诊断和治疗; 肺癌分...",
    "bio_url": "https://www.haodf.com/doctor/DE4r0eJWGqZNgHBSmxOso5quGUbEY0en.htm"
  },
  {
    "disease": "肺癌",
    "name": "韩超楠",
    "pinyin": "hanchaonan",
    "province": "",
    "city": "",
    "hospital": "上海市肺科医院肿瘤科",
    "department": "肿瘤科",
    "title": "主治医师",
    "skill": "擅长：肺部肿瘤的诊治",
    "bio_url": "https://www.haodf.com/doctor/DE4r0Fy0C9LuGlKWy34KzeXxD-uCU22Ut.htm"
  },
  {
    "disease": "肺癌",
    "name": "陈乾坤",
    "pinyin": "chenqiankun",
    "province": "",
    "city": "",
    "hospital": "上海市肺科医院胸外科",
    "department": "胸外科",
    "title": "副主任医师",
    "skill": "擅长：单孔胸腔镜微创外科的应用，普胸外科各类疾病，包括肺癌、气胸肺大疱、气管肿瘤、纵隔...",
    "bio_url": "https://www.haodf.com/doctor/DE4r0BCkuHzdexoRTNQVy3s6uiTQK.htm"
  },
  {
    "disease": "肺癌",
    "name": "邬麟",
    "pinyin": "wulin",
    "province": "",
    "city": "",
    "hospital": "湖南省肿瘤医院肿瘤内科",
    "department": "肿瘤内科",
    "title": "主任医师",
    "skill": "擅长：肺癌、食道癌、纵膈肿瘤、胸膜恶性肿瘤的个体化精准医疗和分子靶向治疗；高水平规范化...",
    "bio_url": "https://www.haodf.com/doctor/DE4r0BCkuHzdeGUzViVkFGpEHP0h6.htm"
  },
  {
    "disease": "肺癌",
    "name": "周斐",
    "pinyin": "zhoufei",
    "province": "",
    "city": "",
    "hospital": "上海市肺科医院肿瘤科",
    "department": "肿瘤科",
    "title": "主治医师",
    "skill": "擅长：肺癌个体化治疗，肺癌靶向治疗、免疫治疗全程管理及治疗策略优化。",
    "bio_url": "https://www.haodf.com/doctor/DE4r0Fy0C9Luwmy5s78xYHgRNvXH4DNxe.htm"
  },
  {
    "disease": "肺癌",
    "name": "易俊",
    "pinyin": "yijun",
    "province": "",
    "city": "",
    "hospital": "东部战区总医院心胸外科",
    "department": "心胸外科",
    "title": "副主任医师",
    "skill": "擅长：心脏、食管、肺疾病微创外科治疗\r\nDavinci机器人辅助胸腺切除、肺叶切除、食管切除，心...",
    "bio_url": "https://www.haodf.com/doctor/DE4r0BCkuHzdexbERuRwE-9BS0ak-.htm"
  },
  {
    "disease": "肺癌",
    "name": "刘宏旭",
    "pinyin": "liuhongxu",
    "province": "",
    "city": "",
    "hospital": "辽宁省肿瘤医院胸外科",
    "department": "胸外科",
    "title": "主任医师",
    "skill": "擅长：诊治范围：肺癌、食管癌、纵隔肿瘤（胸腺瘤等）、漏斗胸、鸡胸、气管肿瘤、肺食管良性...",
    "bio_url": "https://www.haodf.com/doctor/DE4r0BCkuHzduSWKbWYj6dZX-ciU9.htm"
  },
  {
    "disease": "肺癌",
    "name": "马国伟",
    "pinyin": "maguowei",
    "province": "",
    "city": "",
    "hospital": "中山大学肿瘤医院胸外科",
    "department": "胸外科",
    "title": "主任医师",
    "skill": "擅长：胸部肿瘤（肺癌，纵隔肿瘤、胸壁肿瘤等）的诊断及治疗。专长于肺癌的微创手术治疗，肺...",
    "bio_url": "https://www.haodf.com/doctor/DE4r08xQdKSLBGYhpqEsNJ7qcZX0.htm"
  },
  {
    "disease": "肺癌",
    "name": "赵磊",
    "pinyin": "zhaolei",
    "province": "",
    "city": "",
    "hospital": "大连医科大学附属第一医院胸外科",
    "department": "胸外科",
    "title": "副主任医师",
    "skill": "擅长：单孔胸腔镜手术。肺癌，食管癌，纵膈肿瘤，微波消融",
    "bio_url": "https://www.haodf.com/doctor/DE4r0Fy0C9LuSWxEMeCu4D2mqEELeHuif.htm"
  }
]